OBJECT_NAME,OBJECT_ID,EPOCH,MEAN_MOTION,ECCENTRICITY,INCLINATION,RA_OF_ASC_NODE,ARG_OF_PERICENTER,MEAN_ANOMALY,EPHEMERIS_TYPE,CLASSIFICATION_TYPE,NORAD_CAT_ID,ELEMENT_SET_NO,REV_AT_EPOCH,BSTAR,MEAN_MOTION_DOT,MEAN_MOTION_DDOT
TIANMU-1 21,2023-208C,2026-06-14T20:03:28.712736,15.35041460,.0006124,97.4507,285.4265,333.8504,26.2429,0,U,58662,999,13720,.26395E-3,.8898E-4,0
TIANMU-1 22,2023-208D,2026-06-14T20:24:51.229152,15.31030497,.0003432,97.4502,282.0760,12.6676,347.4651,0,U,58663,999,13697,.23703E-3,.7029E-4,0
TIANMU-1 15,2024-004A,2026-06-14T20:53:42.762912,15.27003146,.0006942,97.4661,352.0606,10.7241,349.4144,0,U,58700,999,13542,.20364E-3,.5325E-4,0
TIANMU-1 16,2024-004B,2026-06-14T20:37:36.753024,15.26728042,.0006071,97.4607,351.2890,15.9202,344.2227,0,U,58701,999,13542,.20552E-3,.5329E-4,0
TIANMU-1 17,2024-004C,2026-06-14T20:16:39.799776,15.26727271,.0005756,97.4634,351.7585,22.0994,338.0492,0,U,58702,999,13541,.19826E-3,.5138E-4,0
TIANMU-1 18,2024-004D,2026-06-14T19:43:13.984032,15.26984782,.0004275,97.4653,351.9892,23.0181,337.1249,0,U,58703,999,13541,.18953E-3,.4946E-4,0
INSAT-3DS,2024-033A,2026-06-14T21:12:25.059168,1.00271573,.0000983,0.0430,121.4944,312.4807,229.4063,0,U,58990,999,4704,0,-.151E-5,0
METEOR-M2 4,2024-039A,2026-06-14T20:41:29.385024,14.22429329,.0007156,98.7009,125.1894,167.5092,192.6264,0,U,59051,999,11893,.15722E-4,-.9E-7,0
GOES 19,2024-119A,2026-06-14T19:35:38.876352,1.00272177,.0000378,0.0120,97.6670,89.6211,294.5445,0,U,60133,999,694,0,-.243E-5,0
MTG-S1,2025-143A,2026-06-14T18:12:59.649408,1.00271790,.0000987,0.6054,338.4026,11.1981,183.2294,0,U,64723,999,339,0,-.25E-6,0
METOP-SGA1,2025-172A,2026-06-14T14:30:55.032768,14.21509372,.000092,98.6644,225.3796,92.0158,268.1125,0,U,65159,999,4342,.3806E-4,.4E-6,0
FENGYUN 3H,2025-219A,2026-06-14T20:33:30.555360,14.19920075,.0001591,98.6768,106.6710,77.8331,282.3024,0,U,65815,999,3705,.37582E-4,.36E-6,0
