TIANMU-1 21             
1 58662U 23208C   26165.83574899  .00008898  00000+0  26395-3 0  9995
2 58662  97.4507 285.4265 0006124 333.8504  26.2429 15.35041460137209
TIANMU-1 22             
1 58663U 23208D   26165.85059293  .00007029  00000+0  23703-3 0  9999
2 58663  97.4502 282.0760 0003432  12.6676 347.4651 15.31030497136971
TIANMU-1 15             
1 58700U 24004A   26165.87063383  .00005325  00000+0  20364-3 0  9990
2 58700  97.4661 352.0606 0006942  10.7241 349.4144 15.27003146135426
TIANMU-1 16             
1 58701U 24004B   26165.85945316  .00005329  00000+0  20552-3 0  9997
2 58701  97.4607 351.2890 0006071  15.9202 344.2227 15.26728042135423
TIANMU-1 17             
1 58702U 24004C   26165.84490509  .00005138  00000+0  19826-3 0  9996
2 58702  97.4634 351.7585 0005756  22.0994 338.0492 15.26727271135413
TIANMU-1 18             
1 58703U 24004D   26165.82168963  .00004946  00000+0  18953-3 0  9997
2 58703  97.4653 351.9892 0004275  23.0181 337.1249 15.26984782135414
INSAT-3DS               
1 58990U 24033A   26165.88362337 -.00000151  00000+0  00000+0 0  9999
2 58990   0.0430 121.4944 0000983 312.4807 229.4063  1.00271573 47047
METEOR-M2 4             
1 59051U 24039A   26165.86214566 -.00000009  00000+0  15722-4 0  9996
2 59051  98.7009 125.1894 0007156 167.5092 192.6264 14.22429329118934
GOES 19                 
1 60133U 24119A   26165.81642218 -.00000243  00000+0  00000+0 0  9990
2 60133   0.0120  97.6670 0000378  89.6211 294.5445  1.00272177  6947
MTG-S1                  
1 64723U 25143A   26165.75902372 -.00000025  00000+0  00000+0 0  9998
2 64723   0.6054 338.4026 0000987  11.1981 183.2294  1.00271790  3391
METOP-SGA1              
1 65159U 25172A   26165.60480362  .00000040  00000+0  38060-4 0  9996
2 65159  98.6644 225.3796 0000920  92.0158 268.1125 14.21509372 43427
FENGYUN 3H              
1 65815U 25219A   26165.85660365  .00000036  00000+0  37582-4 0  9990
2 65815  98.6768 106.6710 0001591  77.8331 282.3024 14.19920075 37051
